YAOGAN-35 03B           
1 53318U 22088C   26068.54399603  .00010651  00000+0  44045-3 0  9993
2 53318  34.9880 116.4068 0013847 202.6301 157.3803 15.23107662201134
STARCLOUD-1             
1 66303U 25248L   26067.98149217  .00008636  00000+0  40464-3 0  9994
2 66303  45.4020 297.8511 0006021 202.4241 157.6383 15.20134222 19287
